[{"OBJECT_NAME":"STARLINK-31249","OBJECT_ID":"2024-017N","EPOCH":"2026-03-09T14:42:57.498336","MEAN_MOTION":15.30192085,"ECCENTRICITY":3.18e-5,"INCLINATION":53.1595,"RA_OF_ASC_NODE":204.733,"ARG_OF_PERICENTER":38.2043,"MEAN_ANOMALY":321.8981,"EPHEMERIS_TYPE":0,"CLASSIFICATION_TYPE":"U","NORAD_CAT_ID":58838,"ELEMENT_SET_NO":999,"REV_AT_EPOCH":12004,"BSTAR":-4.8633e-5,"MEAN_MOTION_DOT":-1.798e-5,"MEAN_MOTION_DDOT":0},{"OBJECT_NAME":"TEVEL2-4","OBJECT_ID":"2025-052D","EPOCH":"2026-03-09T16:39:37.129536","MEAN_MOTION":15.30925813,"ECCENTRICITY":0.0004733,"INCLINATION":97.4009,"RA_OF_ASC_NODE":325.1237,"ARG_OF_PERICENTER":95.3468,"MEAN_ANOMALY":264.8313,"EPHEMERIS_TYPE":0,"CLASSIFICATION_TYPE":"U","NORAD_CAT_ID":63213,"ELEMENT_SET_NO":999,"REV_AT_EPOCH":5487,"BSTAR":0.00070362503,"MEAN_MOTION_DOT":0.0002099,"MEAN_MOTION_DDOT":0}]
