STARLINK-31249          
1 58838U 24017N   26068.61316549 -.00001798  00000+0 -48633-4 0  9997
2 58838  53.1595 204.7330 0000318  38.2043 321.8981 15.30192085120046
TEVEL2-4                
1 63213U 25052D   26068.69417973  .00020990  00000+0  70363-3 0  9998
2 63213  97.4009 325.1237 0004733  95.3468 264.8313 15.30925813 54879
